attom_id,city,country,state,post_code,confidencescore,estimatedvalue,fsd,safety_flag
172292268,Muskegon,US,MI,49441,70,155000.0,19,False
36125343,Charleston,US,SC,29414,91,281000.0,10.0,False
4070570,Little Elm,US,TX,75068-6309,93,251000.0,9,False
18937891,Winthrop,US,MA,2152,68,508000.0,20.0,False
2316243,Milwaukee,US,WI,53217-4732,86,405000.0,12,False
252104243,Fort Myers,US,FL,33966-6554,92,202000.0,9,False
2085374,Austin,US,TX,78734,87,287000.0,12,False
2183493,Ardsley,US,NY,10502,52,1432000.0,28,True
158965013,Tucson,US,AZ,85716-2106,72,164000.0,18,False
216912290,Westmoreland City,US,PA,15692,34,198000.0,52,False
2237543,sacramento,US,CA,95824,73,217000.0,18,True
231069348,Hardwick,US,VT,05843-9689,37,158000.0,44,False
154968150,Covina,US,CA,91722,56,510000.0,27,False
28868100,Bend,US,OR,97703-8985,74,632000.0,17,False
26698343,Harwood Heights,US,IL,60706,87,316000.0,12,False
39608767,Newark,US,DE,19702-6322,84,157000.0,13,False
202168191,Mobile,US,AL,36695,72,322000.0,18,False
150337034,Bowie,US,MD,20715-3929,86,351000.0,12,False
41722115,Willis,US,TX,77378-6090,69,124000.0,19,False
49767243,Naperville,US,IL,60565-6739,93,409000.0,8,False
217567914,Spring,US,TX,77389-2153,90,388000.0,10.0,False
171187901,Atlanta,US,GA,30349-7076,87,211000.0,12,False
27078215,Romeoville,US,IL,60446,88,192000.0,12,False
155795337,Anaheim,US,CA,92807,93,606000.0,8,False
248500980,Cutler Bay,US,FL,33190-1392,90,317000.0,10.0,False
37104159,New York,US,NY,10023,39,872000.0,55,True
143214385,Chicago,US,IL,60638-4227,91,233000.0,10.0,False
193533529,Hoover,US,AL,35244,87,302000.0,12,False
53857702,Stafford,US,CT,6076,62,218000.0,23,False
167662291,Brownsboro,US,TX,75756,65,178000.0,21,False
19048028,Silver Spring,US,MD,20904-1550,81,424000.0,14,False
199934428,Kailua,US,HI,96734-4334,70,996000.0,19,False
168182214,New York,US,NY,10002,36,1835000.0,55,True
39176011,Hammond,US,IN,46324,56,85000.0,26,False
153500295,Jackson,US,NJ,8527,71,274000.0,19,False
195920746,Saugus,US,MA,01906-1284,82,642000.0,14,False
46272610,Colorado Springs,US,CO,80906,87,282000.0,11,False
141514273,Saint Paul,US,MN,55119-5806,79,319000.0,15,False
49716842,Woodridge,US,IL,60517-3085,78,73000.0,16,False
29148535,Claremont,US,NH,03743-2459,58,142000.0,25,False
168798676,GLENDALE,US,NY,11385,69,1038000.0,19,False
169574730,New York,US,NY,10035-3944,22,2696000.0,79,False
166560274,Orange,US,TX,77630,35,64000.0,46,False
238691832,Robbinsville,US,NC,28771,69,235000.0,19,True
20557996,Los Angeles,US,CA,90066,60,1174000.0,23,False
3995867,Auburn,US,WA,98002,84,370000.0,13,False
164755179,Kyle,US,TX,78640-3995,67,218000.0,20.0,False
31493714,Silver Spring,US,MD,20910-4983,55,442000.0,27,False
41251860,Miamisburg,US,OH,45342-5209,80,161000.0,15,False
48243155,Charlotte,US,NC,28205,59,193000.0,25,False
3961242,Salt Lake City,US,UT,84109-1320,77,543000.0,16,False
157516580,Mill Valley,US,CA,94941,71,987000.0,18,False
153150034,Moville,US,IA,51039,72,146000.0,18,False
1467790,O Fallon,US,IL,62269-7149,86,233000.0,12,False
154469556,Palmdale,US,CA,93550-5520,85,282000.0,14,False
717236,Chicago,US,IL,60628-1519,67,145000.0,20.0,False
246080819,Brentwood,US,CA,94513-5678,92,457000.0,9,False
2433049,Denton,US,TX,76205-5112,82,137000.0,14,False
50717624,Houston,US,TX,77082-5659,87,309000.0,11,False
152186292,Chicago,US,IL,60623-3902,61,285000.0,24,False
15393557,Dallas,US,TX,75228-4726,83,199000.0,14,False
44082655,San Antonio,US,TX,78247-4661,78,168000.0,16,False
164905441,McKinney,US,TX,75070-2010,94,255000.0,9,False
49344230,Tampa,US,FL,33625-1959,88,293000.0,12,False
14626763,Los Angeles,US,CA,90034-1618,69,1247000.0,19,False
248747592,Glen Allen,US,VA,23059,91,372000.0,10.0,False
190822204,Tuscaloosa,US,AL,35406-1499,68,269000.0,20.0,False
23866656,Markham,US,IL,60428,47,53000.0,32,True
17572120,Kissimmee,US,FL,34743-6038,87,207000.0,12,False
205138697,Orange,US,NJ,07050-2302,43,316000.0,36,False
176878744,Charlotte,US,NC,28277-4524,91,725000.0,10.0,False
176028636,Bloomington,US,IL,61704-8180,88,126000.0,11,False
4584650,Las Vegas,US,NV,89143-5452,93,328000.0,9,False
20995120,Menifee,US,CA,92584,83,364000.0,14,False
11624284,Aurora,US,IL,60502,91,215000.0,10.0,False
151371047,Lehi,US,UT,84043,87,343000.0,12,False
25982988,Granada Hills,US,CA,91344-4124,92,624000.0,10.0,False
4615505,Brooklyn,US,NY,11212-2035,61,761000.0,24,False
151106235,Kirkland,US,WA,98033,35,2193000.0,46,False
198024443,Tulsa,US,OK,74114-2315,69,117000.0,19,False
16933035,Hampstead,US,NH,3841,61,351000.0,23,False
144355039,Easley,US,SC,29640-9697,84,211000.0,14,False
148004652,Coconut Creek,US,FL,33073-4146,89,438000.0,11,False
29652037,Lake View Terrace,US,CA,91342,76,643000.0,16,False
155997524,San Francisco,US,CA,94114,40,2573000.0,46,False
175600716,Lake Zurich,US,IL,60047,91,335000.0,10.0,False
146321834,La Habra,US,CA,90631-3231,70,771000.0,19,False
219862749,Sanford,US,NC,27332-8817,61,101000.0,23,False
213589531,Alexandria,US,LA,71302-2718,76,172000.0,16,False
203740471,Franklin,US,TN,37069-4165,82,520000.0,14,False
2001077,Orland Park,US,IL,60462-3047,90,174000.0,10.0,False
51948448,Baldwin Park,US,CA,91706,55,600000.0,26,False
179156960,Coraopolis,US,PA,15108-9005,80,469000.0,14,False
213372062,Ashland,US,OH,44805,53,114000.0,28,False
165215532,Austin,US,TX,78751-1843,30,540000.0,62,False
144844812,Port Orange,US,FL,32129,80,159000.0,15,False
23725504,Stone mountain,US,GA,30088,66,172000.0,21,False
39171620,Fountain Valley,US,CA,92708,82,775000.0,14,False
146901795,Prior Lake,US,MN,55372,67,261000.0,20.0,False
156198432,Daly City,US,CA,94014-1600,75,979000.0,17,False
175208947,Troy,US,IL,62294,79,343000.0,15,False
45025749,Kalaheo,US,HI,96741-9359,77,1221000.0,16,False
43069969,Los Altos,US,CA,94024,41,2800000.0,34,False
198746968,Keaau,US,HI,96749,74,425000.0,17,False
48541826,Morristown,US,NJ,7960,91,558000.0,10.0,True
166125633,Fort Worth,US,TX,76106-7105,42,101000.0,38,False
152069193,Summerville,US,SC,29483-8193,92,391000.0,10.0,False
220213307,Albany,US,OR,97321,93,274000.0,9,False
157619953,San Jose,US,CA,95125-1826,51,1000000.0,28,False
31205964,Lithonia,US,GA,30038,79,332000.0,15,False
16631441,Pittsburgh,US,PA,15211,57,147000.0,25,False
9802580,Toledo,US,OH,43614,57,118000.0,26,False
32533071,Sandyston,US,NJ,7827,60,430000.0,24,False
54551212,Seattle,US,WA,98125-4901,68,681000.0,20.0,True
1670499,Southgate,US,MI,48195-3820,75,132000.0,17,False
36827906,Mechanicville,US,NY,12118,85,488000.0,13,False
219201393,Ferdinand,US,IN,47532-9375,45,220000.0,36,False
49406875,Davie,US,FL,33317,80,252000.0,15,False
213737718,Granite Shoals,US,TX,78654-2548,79,235000.0,15,False
147030957,Boise,US,ID,83704,92,231000.0,9,True
9509773,FARMINGDALE,US,NY,11735,64,563000.0,22,False
28804615,Alvin,US,TX,77511,65,248000.0,22,False
17797939,Compton,US,CA,90220,58,318000.0,24,False
183630572,Highland,US,UT,84003-9264,58,476000.0,25,False
38884418,Palatine,US,IL,60074,26,237000.0,71,False
7791638,Ludlow,US,KY,41016-1327,50,71000.0,30.0,False
52222902,Fair Oaks,US,CA,95628,70,449000.0,19,False
196662695,Germantown,US,TN,38139,78,749000.0,16,False
159157614,Buckeye,US,AZ,85326-6041,91,206000.0,10.0,False
42555085,Saint Paul,US,MN,55106-2005,70,252000.0,19,False
169768276,GLENDALE,US,NY,11385,72,900000.0,18,False
29646030,Turlock,US,CA,95382,85,473000.0,13,False
8779620,Cedar Hill,US,TX,75104-2895,79,139000.0,15,False
167682485,Beaumont,US,TX,77703,37,96000.0,42,True
172938236,Byron Center,US,MI,49315-7932,61,224000.0,24,False
40519772,San Francisco,US,CA,94131,69,2310000.0,19,False
49072430,Placerville,US,CA,95667,79,479000.0,15,False
151113878,Tucson,US,AZ,85710,64,160000.0,22,True
31293355,West Palm Beach,US,FL,33401-8488,67,185000.0,20.0,False
203776254,Cedar Grove,US,NJ,7009,78,670000.0,16,False
197088063,Ocean Springs,US,MS,39564-3326,78,159000.0,16,False
163506286,Dade City,US,FL,33525-8101,58,386000.0,25,False
154401034,Encino,US,CA,91316-1736,59,434000.0,25,False
40293374,Rancho Mirage,US,CA,92270,28,956000.0,65,True
52259149,WEST BLOOMFIELD,US,MI,48324,91,361000.0,10.0,False
168355898,Webster,US,NY,14580-1821,64,139000.0,21,False
40005917,Jersey City,US,NJ,07306-7004,54,402000.0,31,False
14356016,Colorado Springs,US,CO,80920,89,343000.0,11,False
200616455,Gretna,US,LA,70056,61,166000.0,24,False
51321615,Stockton,US,CA,95206-4800,78,293000.0,16,False
151458027,Leesburg,US,VA,20175-8972,91,556000.0,10.0,False
1102063,Grand Rapids,US,MI,49505,72,221000.0,18,False
170065508,Ithaca,US,NY,14850,69,365000.0,19,True
49891655,West Bloomfield,US,MI,48322,84,488000.0,13,False
195014760,Okmulgee,US,OK,74447,34,152000.0,44,False
217779424,Catlin,US,IL,61817-9605,39,90000.0,44,False
10134431,San Jose,US,CA,95119,74,1006000.0,17,True
40443458,Sacramento,US,CA,95827,80,302000.0,15,False
158085906,San Diego,US,CA,92130,85,1103000.0,13,False
237079396,Ashland,US,OH,44805,54,155000.0,28,False
7886743,Summerton,US,SC,29148-7897,48,152000.0,31,False
249607285,Burleson,US,TX,76028-1587,85,264000.0,12,False
312223113,Kissimmee,US,FL,34758-2350,89,266000.0,11,False
224972479,Toms River,US,NJ,08753-6640,54,206000.0,30.0,False
41719682,Baytown,US,TX,77521,91,176000.0,10.0,False
140479158,Morganton,US,NC,28655-4327,63,121000.0,22,False
7746645,Chicago,US,IL,60625-6405,55,177000.0,28,False
15821198,Charlotte,US,NC,28278-8007,93,266000.0,9,False
192706545,Bluemont,US,VA,20135,67,582000.0,20.0,False
4300587,Pueblo,US,CO,81005-1031,73,390000.0,18,True
14132885,Riverside,US,CA,92507,80,378000.0,15,False
146208368,Middle Village,US,NY,11379,74,782000.0,17,False
20352019,Cape Coral,US,FL,33991-3441,81,284000.0,14,False
168757150,Norwich,US,NY,13815-1219,67,130000.0,20.0,False
193863012,Oregon City,US,OR,97045,66,531000.0,21,False
48809031,Norwich,US,NY,13815,46,50000.0,34,False
433765,Indianapolis,US,IN,46201-2476,36,96000.0,41,False
33580240,San Antonio,US,TX,78213-3333,57,233000.0,26,False
23320386,Phoenix,US,AZ,85037-5032,86,211000.0,12,False
25516037,Shakopee,US,MN,55379,79,230000.0,15,False
170474673,Bronx,US,NY,10473-4413,57,101000.0,28,False
26248021,South Holland,US,IL,60473-3314,49,129000.0,31,False
24006284,New Lenox,US,IL,60451-3816,93,319000.0,9,False
166565331,Vidor,US,TX,77662,31,164000.0,50.0,True
194208279,Roanoke,US,VA,24014,67,142000.0,20.0,False
21234739,Overland Park,US,KS,66210,83,272000.0,13,False
37344077,Phoenixville,US,PA,19460,89,259000.0,11,False
250647844,Stonewall,US,LA,71078-9654,92,313000.0,9,False
16431796,Riverside,US,CA,92508,91,507000.0,10.0,False
211711650,Baker City,US,OR,97814-1701,48,120000.0,31,False
34728258,Fallon,US,NV,89406,68,343000.0,20.0,False
185185300,Monroe,US,WA,98272,73,373000.0,17,False
186133000,Milton,US,FL,32571-8364,82,220000.0,13,False
45122325,Waterloo,US,IL,62298,68,168000.0,20.0,False
47272323,San Antonio,US,TX,78260,87,424000.0,12,False
230267940,Edgefield,US,SC,29824,84,201000.0,13,False
198780247,Baton Rouge,US,LA,70812,50,83000.0,29,False
150524838,Stillwater,US,MN,55082-4529,87,607000.0,11,False
50508792,Allen,US,TX,75002-4070,89,180000.0,11,False
168011559,New York,US,NY,10002-3529,39,939000.0,51,False
27440402,Toledo,US,OH,43611,48,42000.0,32,False
168186953,Taberg,US,NY,13471-3042,46,61000.0,34,False
52338621,Silver Spring,US,MD,20906,77,415000.0,16,False
28415791,Forney,US,TX,75126,92,223000.0,9,False
42523753,Indianapolis,US,IN,46235-1167,57,56000.0,26,False
197169914,Washington,US,DC,20017-3806,73,737000.0,18,False
22581455,Lemon Grove,US,CA,91945,67,483000.0,20.0,False
171471659,Peachtree Corners,US,GA,30092-2352,85,458000.0,13,False
30467447,Lakeport,US,CA,95453,77,322000.0,16,False
36419685,Pearland,US,TX,77581-2461,87,274000.0,12,False
43391685,Windermere,US,FL,34786-7331,92,399000.0,9,False
143855345,Bowie,US,MD,20721-1824,91,291000.0,10.0,False
145893492,Hudson,US,WI,54016,70,421000.0,19,False
37982413,RENO,US,NV,89502,52,256000.0,31,False
3042122,San Jose,US,CA,95121-1709,78,736000.0,15,False
163615483,St Pete Beach,US,FL,33706-2436,72,491000.0,18,True
176380857,Asheville,US,NC,28803-8542,65,391000.0,21,False
144430507,Romeoville,US,IL,60446-1729,88,154000.0,12,False
9773422,Tallahassee,US,FL,32303,66,146000.0,21,False
143103434,Windermere,US,FL,34786-6331,94,234000.0,8,False
48864128,Queens Village,US,NY,11427-2244,74,835000.0,17,False
29250705,Knoxville,US,TN,37902,50,290000.0,32,False
156080740,Castro Valey,US,CA,94552,73,931000.0,18,False
190292695,Milford,US,MA,01757-2459,52,272000.0,30.0,False
160659180,Pembroke Pines,US,FL,33023-1065,77,344000.0,16,False
15133192,Jersey City,US,NJ,7302,46,862000.0,36,False
44202475,Bethlehem,US,PA,18017,88,186000.0,11,False
182708344,Dalton,US,OH,44618,67,250000.0,20.0,False
53337523,Greenwood,US,IN,46143-7190,65,500000.0,21,False
160219978,Auburndale,US,FL,33823,69,124000.0,19,False
202653393,Beaverton,US,OR,97007,94,326000.0,9,False
22421809,Decatur,US,GA,30034,68,281000.0,19,False
153012527,Orange Park,US,FL,32073-2544,59,126000.0,24,False
27156749,Modesto,US,CA,95355-1438,66,287000.0,20.0,False
51944302,Compton,US,CA,90220,63,439000.0,22,False
164708621,Fort Worth,US,TX,76244-6144,94,300000.0,8,False
28184176,Sykesville,US,MD,21784-9616,75,255000.0,16,False
170484293,Fresh Meadows,US,NY,11365-1935,80,1030000.0,14,False
188431298,Kansas City,US,MO,64113-1135,64,600000.0,22,False
21200776,Lake Worth,US,FL,33463-8234,89,407000.0,10.0,True
149608991,Franklin,US,IN,46131-8319,63,276000.0,22,False
241823047,Houston,US,TX,77047-4121,50,59000.0,31,False
39346783,Annapolis,US,MD,21403-4243,78,502000.0,15,False
168008899,Astoria,US,NY,11105,57,833000.0,25,False
9304255,Dumfries,US,VA,22026-2179,93,272000.0,9,True
229267979,port st. lucie,US,FL,34987,91,326000.0,9,False
19848863,Orangevale,US,CA,95662-2536,51,457000.0,29,False
211936275,Elgin,US,TX,78621-3413,53,98000.0,27,False
37161513,NORTH TONAWANDA,US,NY,14120,91,355000.0,10.0,True
41527978,Sugar Land,US,TX,77479-5837,89,487000.0,11,False
157321792,Fresno,US,CA,93722-7331,85,314000.0,12,False
29773353,Harrisburg,US,NC,28075-9647,85,275000.0,13,False
153388217,Cary,US,IL,60013,93,181000.0,9,False
185614718,Lakewood,US,WA,98498-5949,81,245000.0,14,False
22958565,South Gate,US,CA,90280-6732,63,546000.0,22,False
4332015,Orlando,US,FL,32817-2308,80,262000.0,15,False
157575449,Palo Alto,US,CA,94303,49,2373000.0,30.0,False
19941543,North Haledon,US,NJ,7508,71,487000.0,19,True
202246634,North Chesterfield,US,VA,23237-4306,70,152000.0,19,False
29081622,Gilmanton Iw,US,NH,03837-4822,54,164000.0,27,False
145202173,Harvard,US,IL,60033,75,134000.0,17,False
4427184,Pasadena,US,TX,77505-5464,84,303000.0,13,False
157243892,Oakley,US,CA,94561-5031,86,291000.0,13,False
170312732,Hauppauge,US,NY,11788-4418,53,477000.0,30.0,False
14345795,FORT COLLINS,US,CO,80525,93,528000.0,8,False
31338434,Cary,US,NC,27518,88,530000.0,12,False
146971015,Lawndale,US,CA,90260-3014,88,551000.0,11,False
175484166,Elmhurst,US,IL,60126,72,571000.0,18,False
15967927,Alabaster,US,AL,35007-5163,80,151000.0,14,False
161999203,Eastpoint,US,FL,32328,34,480000.0,55,False
53244822,Munford,US,TN,38058-6014,56,177000.0,26,False
12950742,Woodstock,US,GA,30189,87,267000.0,12,False
23907235,Apex,US,NC,27502,62,258000.0,23,False
38849395,La Grange,US,IL,60525-2854,87,305000.0,11,False
9218214,Memphis,US,TN,38125-3596,88,193000.0,12,False
188855812,Belleville,US,NJ,07109-2711,71,289000.0,18,False
22330095,Garland,US,TX,75043,89,283000.0,11,False
17332121,Spring,US,TX,77380-1208,49,136000.0,31,False
165126244,Dallas,US,TX,75204-4420,72,409000.0,18,False
24618143,Arlington,US,TX,76017-2334,84,130000.0,13,False
39657867,Newark,US,DE,19713,82,214000.0,14,False
168240879,Brooklyn,US,NY,11209-5618,36,1115000.0,49,False
215287004,NACOGDOCHES,US,TX,75965,41,2767000.0,39,False
11702777,Zebulon,US,NC,27597-2859,82,150000.0,14,False
4112990,Spring City,US,TN,37381,58,106000.0,25,False
69566,Midlothian,US,IL,60445-3344,80,138000.0,15,False
17840780,Brooklyn,US,NY,11222,53,1453000.0,28,False
214495008,Sauk Centre,US,MN,56378,61,165000.0,23,False
29039124,Katy,US,TX,77494-4385,84,368000.0,13,False
10104423,Tucson,US,AZ,85746-7977,91,190000.0,10.0,False
249230697,San Dimas,US,CA,91773-2786,47,480000.0,34,False
8700142,Santa Rosa Beach,US,FL,32459,82,214000.0,14,False
168140226,Buffalo,US,NY,14224-4354,85,267000.0,13,False
249456023,North Charleston,US,SC,29405-3214,73,360000.0,17,False
166643581,San Antonio,US,TX,78222-1329,57,107000.0,26,False
179713685,Ambridge,US,PA,15003-1765,58,55000.0,25,False
165416296,Austin,US,TX,78704-6508,48,379000.0,34,False
54593401,Bryan,US,TX,77802,83,251000.0,14,False
164198395,Orlando,US,FL,32825-3791,93,235000.0,8,False
188559340,Columbia,US,SC,29203-6736,35,101000.0,42,False
30660329,Temecula,US,CA,92591-3757,31,402000.0,52,False
15174599,Philadelphia,US,PA,19140-1118,57,113000.0,26,True
146009335,Miami Shores,US,FL,33150,66,597000.0,21,False
49112182,Los Angeles,US,CA,90037,69,614000.0,19,False
144397982,Albuquerque,US,NM,87108-2980,54,147000.0,30.0,False
145419243,Schuyler Falls,US,NY,12985,49,94000.0,31,False
200060167,Manchester,US,CT,06042-3614,61,229000.0,23,False
51108838,San Francisco,US,CA,94109,22,2325000.0,79,True
199565503,West Des Moines,US,IA,50266,94,125000.0,8,False
200407681,Hooksett,US,NH,3106,52,218000.0,29,True
42534023,Taylor,US,MI,48180,87,107000.0,12,False
187594128,New Fairfield,US,CT,6812,44,443000.0,35,False
158734280,Mesa,US,AZ,85205-7823,55,249000.0,28,False
32554666,Brick,US,NJ,08724-4619,72,353000.0,18,False
48039972,Vancouver,US,WA,98684-3793,89,350000.0,11,False
163931444,Chipley,US,FL,32428-3865,54,104000.0,28,False
552050,Macomb,US,MI,48042-6223,91,301000.0,10.0,False
23717841,San Jose,US,CA,95132,34,498000.0,42,False
50209515,Northwood,US,OH,43619-2207,39,343000.0,40.0,False
34460927,Wausau,US,WI,54403,81,362000.0,14,False
145309191,Sarasota,US,FL,34240,90,638000.0,10.0,False
210651436,Carrollton,US,VA,23314,89,463000.0,11,False
26130198,Fort Myers,US,FL,33905-4602,51,88000.0,29,False
28065379,Bulverde,US,TX,78163,90,523000.0,11,False
16225782,Odenton,US,MD,21113,91,344000.0,10.0,False
172455328,Canton,US,MI,48187,93,254000.0,9,False
250270649,Weatherford,US,OK,73096-4720,52,96000.0,48,False
48125326,Algonac,US,MI,48001-1150,53,113000.0,28,False
157776569,Aliso Viejo,US,CA,92656-1846,95,1063000.0,8,False
148454667,Duncan,US,AZ,85534,45,87000.0,34,False
145978452,Milwaukee,US,WI,53209-5824,61,44000.0,23,False
25677665,Washington,US,DC,20019-1416,87,275000.0,11,False
252833648,Westborough,US,MA,1581,63,293000.0,21,False
145952628,San Francisco,US,CA,94134,52,989000.0,28,False
210196327,Lexington,US,TX,78947-9402,54,113000.0,28,False
3239728,West covina,US,CA,91791,84,615000.0,14,False
216965663,San Francisco,US,CA,94117,63,1651000.0,22,False
36370768,League City,US,TX,77573,93,301000.0,9,False
142397310,Fairfax,US,VA,22031-2050,94,446000.0,8,False
15267605,Tacoma,US,WA,98408-3435,66,236000.0,21,False
147672947,Dana Point,US,CA,92629,88,661000.0,11,False
41263889,Portland,US,OR,97206,74,444000.0,17,False
40616059,San Francisco,US,CA,94107,73,1377000.0,17,False
46393219,Miami,US,FL,33186-7330,83,254000.0,13,False
157674775,Berkeley,US,CA,94710,44,1299000.0,34,False
17405232,Nipomo,US,CA,93444,80,975000.0,15,False
195520689,Chattanooga,US,TN,37421,82,366000.0,14,False
37906420,New Windsor,US,NY,12553-4935,92,442000.0,9,False
240370510,West Chazy,US,NY,12992,79,217000.0,15,False
166007870,Euless,US,TX,76040-4980,87,254000.0,12,False
172036523,Dexter,US,MI,48130-9583,87,460000.0,12,False
154934698,La Mirada,US,CA,90638-4935,71,635000.0,19,False
156372106,San Diego,US,CA,92124-2233,77,776000.0,16,False
219903131,Sanford,US,NC,27330-4528,39,58000.0,38,False
18150351,Livonia,US,MI,48152,60,75000.0,24,False
148033090,Wichita,US,KS,67230,63,144000.0,22,False
52428885,Oklahoma city,US,OK,73114,88,152000.0,11,False
24763711,Philadelphia,US,PA,19139,65,55000.0,21,False
252519140,Portland,US,OR,97202-5603,90,427000.0,9,False
154690233,Long Beach,US,CA,90840,68,704000.0,20.0,False
191021908,Hockessin,US,DE,19707,69,407000.0,19,False
145743825,Miami,US,FL,33167-2130,57,212000.0,25,False
581511,Irwin,US,PA,15642-7101,60,200000.0,24,False
168207045,BROOKLYN,US,NY,11201,33,1929000.0,47,False
231113388,Sumter,US,SC,29150-4633,84,415000.0,13,False
168434568,Brooklyn,US,NY,11231,34,2206000.0,46,False
146139748,Cottonwood,US,CA,96022-7902,87,278000.0,12,False
212338038,Tonganoxie,US,KS,66086-9333,79,204000.0,15,False
154821630,Los Angeles,US,CA,90044,58,489000.0,26,False
1421193,Basking Ridge,US,NJ,07920-2757,89,252000.0,11,False
50075609,Bowie,US,MD,20716,94,429000.0,8,False
41402995,San Antonio,US,TX,78245-2744,69,144000.0,19,False
200611137,Kingsport,US,TN,37660,53,81000.0,28,False
24292392,Brooklyn,US,NY,11235,64,338000.0,22,False
22162936,Eureka,US,MO,63025-3180,84,140000.0,13,False
44324464,Clifton Heights,US,PA,19018,95,135000.0,8,False
175435163,Sauk village,US,IL,60411,58,68000.0,25,False
170689162,Albany,US,NY,12207,85,351000.0,13,True
233800025,Joliet,US,IL,60435-4309,81,155000.0,14,False
150478386,Niles,US,IL,60714,86,407000.0,12,False
29677636,AVENTURA,US,FL,33180,33,327000.0,52,False
195162189,Fayetteville,US,TN,37334-6833,69,120000.0,19,False
2267356,Waldorf,US,MD,20603-4418,92,317000.0,9,False
4963576,Pitcairn,US,PA,15140-1011,48,61000.0,31,False
9089424,Perris,US,CA,92571-7473,91,346000.0,10.0,False
216569571,Ludowici,US,GA,31316-0000,80,194000.0,14,False
152204059,Round Rock,US,TX,78681,95,432000.0,8,False
3569689,Belmar,US,NJ,7719,52,390000.0,33,False
166014371,Austin,US,TX,78746-2407,33,1394000.0,49,True
46661436,Massena,US,NY,13662-2552,54,79000.0,27,False
252848692,Mount Pleasant,US,SC,29429-4976,92,451000.0,9,False
209418786,Carrollton,US,TX,75010,79,310000.0,15,False
152717650,Red Bank,US,NJ,7701,71,439000.0,18,False
17984443,Redford,US,MI,48240-1360,68,106000.0,20.0,False
191630805,Hamden,US,CT,06518-2616,57,157000.0,25,False
44677372,Del Valle,US,TX,78617-3499,86,185000.0,12,False
7543234,New Haven,US,MI,48048-1978,82,104000.0,14,True
154468799,Palmdale,US,CA,93551-4205,83,330000.0,14,False
23749639,bronx,US,NY,10473,64,476000.0,21,False
198756190,Columbia,US,MD,21045-4333,82,289000.0,14,False
28227963,Fulton,US,MD,20759,91,686000.0,10.0,False
36370352,Greenville,US,SC,29609-6900,76,331000.0,16,False
165760720,Richmond,US,TX,77406-9673,75,748000.0,16,False
26498208,Fremont,US,CA,94536-4844,73,833000.0,17,False
144157762,Egg Harbor City,US,NJ,8215,56,158000.0,26,False
17558823,Gainesville,US,VA,20155-4408,93,360000.0,8,False
160613591,Coral Springs,US,FL,33071-7153,81,442000.0,14,False
158092018,Chino Hills,US,CA,91709-7876,83,731000.0,13,False
203169857,Avon,US,IN,46123,59,244000.0,24,False
40558785,Half Moon Bay,US,CA,94019,79,2415000.0,15,False
165162590,Dallas,US,TX,75214,86,727000.0,12,False
12071853,Benton,US,AR,72019,86,319000.0,12,False
36516632,Bangor,US,PA,18013-9656,90,376000.0,10.0,False
20454564,Erie,US,PA,16505-4938,59,97000.0,25,False
53610674,Columbus,US,OH,43232-6805,63,87000.0,22,False
30435436,Henderson,US,NV,89012-2480,90,309000.0,10.0,False
16458868,Chesterfield,US,VA,23832,85,314000.0,13,False
165561137,Denison,US,TX,75020-3535,76,119000.0,16,False
100073423,Hemet,US,CA,92545,53,253000.0,28,False
188296388,Grimes,US,IA,50111-2119,70,137000.0,19,False
160628107,Tamarac,US,FL,33319,76,163000.0,16,False
3851752,Hampton,US,GA,30228,57,59000.0,25,False
218725400,Jenison,US,MI,49428-9738,72,181000.0,18,False
42441809,Waldorf,US,MD,20603-3706,90,373000.0,11,False
238495307,Matthews,US,GA,30818-1792,53,113000.0,28,False
31350603,CHARLOTTE,US,NC,28203,53,502000.0,29,False
46893302,Seville,US,OH,44273-9139,77,233000.0,16,False
29646316,San Gabriel,US,CA,91776,56,550000.0,25,False
19566491,Modesto,US,CA,95358,70,235000.0,19,False
189046257,West Memphis,US,AR,72301,56,62000.0,26,False
28399395,Dallas,US,TX,75229-6106,76,404000.0,16,False
200956010,Bordentown,US,NJ,8505,71,173000.0,19,False
153993167,Laguna Niguel,US,CA,92677,81,919000.0,14,False
4787206,Bellmore,US,NY,11710-3318,68,485000.0,20.0,False
34231124,Milwaukee,US,WI,53211-2459,80,516000.0,15,False
154861096,Long Beach,US,CA,90805-1941,57,872000.0,25,False
199398485,Urbandale,US,IA,50322,87,209000.0,12,False
46148905,Springville,US,CA,93265-9680,68,376000.0,20.0,False
141866252,Miami,US,FL,33184-3041,70,654000.0,19,False
158456194,Hammond,US,IN,46324-2332,46,72000.0,32,False
210981642,Pineville,US,LA,71360-6213,52,134000.0,30.0,False
41590376,Katy,US,TX,77449-7020,92,171000.0,9,False
29907564,Kokomo,US,IN,46901-7711,29,85000.0,43,False
215805367,Linton,US,IN,47441,26,46000.0,44,False
17076174,Corona,US,CA,92882-4740,91,447000.0,10.0,False
51180803,Carlsbad,US,CA,92011,87,644000.0,12,False
21831227,SACRAMENTO,US,CA,95832,83,255000.0,14,False
151216922,brooklyn,US,NY,11211,23,1969000.0,67,False
168217372,Springville,US,NY,14141-1043,44,186000.0,36,False
26860564,Manasquan,US,NJ,08736-3810,73,752000.0,17,False
193862933,Johnson City,US,TN,37604-4440,56,97000.0,26,True
179382092,Dillsburg,US,PA,17019,88,225000.0,11,False
207583912,Broussard,US,LA,70518,82,295000.0,14,False
4097010,Houston,US,TX,77067-1817,79,142000.0,15,False
169360469,Bronx,US,NY,10455,40,486000.0,50.0,False
159768305,Tampa,US,FL,33629,65,431000.0,21,False
33615163,Butler,US,PA,16001-9793,38,182000.0,43,False
19286150,San Jose,US,CA,95125,56,1692000.0,27,True
51597929,Davie,US,FL,33331,86,325000.0,12,False
4537147,Allen Park,US,MI,48101-2310,90,138000.0,11,False
10316299,South Windsor,US,CT,06074-6917,77,302000.0,16,False
1778791,South Holland,US,IL,60473-1070,60,98000.0,24,False
52066072,Long Beach,US,CA,90805-1039,59,680000.0,24,False
189390274,Virginia Beach,US,VA,23455-2702,74,203000.0,17,False
195005488,West Orange,US,NJ,7052,41,384000.0,41,False
169554018,New York,US,NY,10014,70,2197000.0,19,False
237312683,Shade,US,OH,45776,36,66000.0,47,False
216691448,Nevada,US,IA,50201,59,171000.0,24,False
212451675,Kerrville,US,TX,78029,20,221000.0,77,False
42822028,Brooklyn,US,NY,11211,71,1821000.0,19,True
28500890,Valparaiso,US,IN,46383,39,274000.0,43,False
170654785,New York,US,NY,10012,50,2274000.0,30.0,False
53359365,Long Island City,US,NY,11101,67,795000.0,20.0,True
21669736,Ontario,US,CA,91761-4416,62,433000.0,23,False
170047352,Woodbourne,US,NY,12788-5422,55,214000.0,28,False
51287785,San Mateo,US,CA,94401-3037,26,1505000.0,51,False
148726070,West Palm Beach,US,FL,33404,59,456000.0,24,False
163489045,Holiday,US,FL,34690-6439,59,140000.0,24,False
325408778,Gaston,US,SC,29053-8145,88,195000.0,11,True
43285996,North Port,US,FL,34286-9398,88,169000.0,11,False
317126900,Marysville,US,WA,98270,77,471000.0,16,False
15355091,Fairburn,US,GA,30213,89,128000.0,11,False
224674771,Brooklyn,US,NY,11206-5365,76,2295000.0,16,False
42816417,North Royalton,US,OH,44133,84,297000.0,13,False
189103784,Marrero,US,LA,70072,78,332000.0,15,False
39769056,homestead,US,FL,33032,81,257000.0,14,False
7074624,Gallatin,US,TN,37066-5829,88,378000.0,11,False
170377926,Oswego,US,NY,13126,67,50000.0,21,False
156740955,Del Mar,US,CA,92014,60,2567000.0,23,False
251653367,Midvale,US,UT,84047-5059,55,290000.0,27,True
3171157,Gig Harbor,US,WA,98335-1955,72,791000.0,18,False
153375577,Seattle,US,WA,98166,76,660000.0,16,False
53005439,West Hills,US,CA,91307-2816,89,652000.0,11,False
11033400,Sacramento,US,CA,95829-1451,88,331000.0,11,False
215450710,Hutchinson,US,KS,67501,46,93000.0,33,False
142581943,Summerville,US,SC,29483-8052,93,149000.0,9,False
26225761,Miami,US,FL,33165-3429,74,347000.0,17,False
152052769,Manitowoc,US,WI,54220-4849,61,95000.0,24,False
154578150,Los Angeles,US,CA,90024,64,2126000.0,21,False
7748533,Hyannis,US,MA,02601-2624,63,278000.0,22,False
30838415,Apopka,US,FL,32703-2609,84,289000.0,13,False
10562867,springfield,US,MA,1109,66,164000.0,21,False
220048495,Yorkville,US,IL,60560-4746,92,223000.0,9,False
146250128,Columbia,US,SC,29212-2013,71,153000.0,18,False
193848622,Minneapolis,US,MN,55423,42,223000.0,48,False
2792846,new cstle,US,DE,19720,76,165000.0,17,False
156557932,Placerville,US,CA,95667-6416,42,247000.0,35,False
213711671,Shawnee,US,KS,66226-3118,93,236000.0,9,False
200695064,Avon,US,IN,46123,75,210000.0,17,False
182863145,Worthington,US,OH,43085,89,300000.0,11,False
243175847,Camden,US,TN,38320,42,80000.0,43,False
178767254,Collegeville,US,PA,19426-3441,82,375000.0,14,False
48435722,Matawan,US,NJ,07747-9651,75,479000.0,16,False
16844487,Davenport,US,FL,33896,90,283000.0,10.0,False
18005039,Charlotte,US,NC,28214-7153,88,184000.0,11,False
251487811,Glen Allen,US,VA,23059,93,414000.0,9,False
46151835,San Diego,US,CA,92126,80,582000.0,15,True
186111404,Panama City Beach,US,FL,32413-4679,86,221000.0,12,False
141864185,Parker,US,CO,80134,86,445000.0,12,False
168231786,Brooklyn,US,NY,11215-8700,37,1171000.0,55,False
172145980,Tecumseh,US,MI,49286-1344,67,186000.0,21,False
33755468,Burleson,US,TX,76028,75,171000.0,17,False
156717057,Aromas,US,CA,95004,41,426000.0,37,False
141170254,Mineral Wells,US,TX,76067,68,358000.0,20.0,False
31451160,Gilberts,US,IL,60136-8002,92,214000.0,9,False
178735290,Jenkintown,US,PA,19046-4213,64,233000.0,21,False
23646553,Echo Farms,US,NC,28412,79,322000.0,15,False
168415635,Brooklyn,US,NY,11231-2823,41,1846000.0,38,False
200618495,Dubuque,US,IA,52001,88,194000.0,11,False
183555804,Cincinnati,US,OH,45244-2364,78,226000.0,15,False
7846138,tavares,US,FL,32778,54,130000.0,27,False
146925872,Orlando,US,FL,32819-4048,70,885000.0,19,False
213749560,New Castle,US,PA,16101-1619,41,57000.0,37,False
215917773,Greencastle,US,PA,17225-9145,54,274000.0,31,False
196575349,Somerville,US,NJ,8876,66,439000.0,20.0,False
8122972,Sparks,US,NV,89436-7480,85,398000.0,12,False
169800840,Flushing,US,NY,11367,62,1147000.0,23,False
186995001,Portland,US,OR,97221-3745,74,562000.0,17,False
1455044,Ocala,US,FL,34472,79,140000.0,15,False
10724842,West Palm Beach,US,FL,33411-6401,93,251000.0,9,False
144939840,Louisville,US,KY,40211-3116,78,108000.0,16,False
19310122,Sanford,US,FL,32771-6740,88,235000.0,11,False
42471916,Saint Louis,US,MO,63144-1027,77,462000.0,16,False
45595405,Athens,US,NY,12015-1322,57,231000.0,25,False
154207839,Brooklyn,US,NY,11217,41,2678000.0,36,False
36347458,San Antonio,US,TX,78259-2275,81,250000.0,14,False
215787550,Spring Mills,US,PA,16875-8327,60,269000.0,24,False
11543567,Port Saint Lucie,US,FL,34983,77,176000.0,16,False
209597434,Findlay,US,OH,45840-8893,83,199000.0,13,False
178783639,Harleysville,US,PA,19438,81,562000.0,14,False
45107718,Towson,US,MD,21286,82,222000.0,14,False
47360411,San Antonio,US,TX,78217-1459,77,170000.0,16,False
19217398,Chicago Heights,US,IL,60411-3207,42,53000.0,37,False
212730487,Remer,US,MN,56672,46,193000.0,36,False
158495189,Hammond,US,IN,46327-1315,43,110000.0,36,False
182781392,Springfield,US,OH,45503-6132,71,143000.0,19,False
47172157,Morrisville,US,PA,19067,68,375000.0,20.0,False
48839096,Brooklyn,US,NY,11229-4901,60,1366000.0,24,False
20571002,Anaheim,US,CA,92806,90,634000.0,11,False
147643083,Whittier,US,CA,90606,74,486000.0,17,False
13843293,Portage,US,IN,46368-2225,85,214000.0,12,False
46834908,New City,US,NY,10956,85,526000.0,13,False
3612682,Verona,US,PA,15147-1617,55,58000.0,27,False
41517728,Pearland,US,TX,77584-5101,90,320000.0,10.0,False
30828644,Bear,US,DE,19701-3002,85,268000.0,13,False
44585817,Atoka,US,TN,38004-7747,89,245000.0,11,False
24205308,Philadelphia,US,PA,19151-3620,52,160000.0,28,False
37335740,Pittsburgh,US,PA,15228-2566,77,235000.0,16,False
4800652,North Little Rock,US,AR,72118-3073,77,81000.0,16,False
174915469,Niles,US,IL,60714-2742,82,331000.0,14,False
213111029,Bristol,US,VA,24202,48,151000.0,33,False
188396132,Arlington,US,VA,22209,78,174000.0,16,False
13568192,Nashville,US,TN,37216-4219,70,330000.0,19,False
21581505,Houston,US,TX,77084-6123,85,224000.0,13,False
252447331,Riverview,US,FL,33579-9341,92,309000.0,9,False
2232006,Irving,US,TX,75060,86,231000.0,12,False
140859524,Middletown,US,NY,10940-6645,84,58000.0,13,False
12851211,Glendale,US,CA,91205,50,514000.0,29,False
17810520,Orlando,US,FL,32825,80,279000.0,15,True
199573960,Gravette,US,AR,72736-8961,81,186000.0,14,False
208731520,Stratford,US,CA,93266,40,192000.0,41,False
41341507,Englewood,US,OH,45322,63,132000.0,22,False
183705510,Bountiful,US,UT,84010-4537,58,374000.0,24,True
43101032,Turlock,US,CA,95382,90,524000.0,10.0,False
51919572,Lancaster,US,CA,93536-6077,90,337000.0,11,False
156905572,San Diego,US,CA,92102,66,439000.0,20.0,True
238173847,Spring,US,TX,77386-4199,90,651000.0,11,False
14159511,Marietta,US,GA,30008-6084,79,169000.0,15,False
18955770,Phoenix,US,AZ,85032-7205,77,319000.0,16,False
143111110,Sacramento,US,CA,95831,67,430000.0,21,False
20168494,Springville,US,NY,14141,54,122000.0,28,False
31460392,Dekalb,US,IL,60115,87,107000.0,12,False
142733282,Titusville,US,FL,32780-8126,56,149000.0,26,False
147876598,Pittsburgh,US,PA,15236,62,164000.0,23,False
28967382,Iselin,US,NJ,08830-1205,75,282000.0,16,False
203793636,Baltimore,US,MD,21212-2935,74,411000.0,17,False
8740261,Nashville,US,TN,37207-3015,57,98000.0,26,False
142734415,San Jose,US,CA,95127-1013,70,1118000.0,18,False
186155824,Black Mountain,US,NC,28711,81,381000.0,14,False
194660043,Shreveport,US,LA,71104,60,91000.0,24,False
177099734,Hendersonville,US,NC,28792-1148,80,249000.0,15,False
190706443,Rockville,US,MD,20850-6001,88,197000.0,11,False
159189911,Peoria,US,AZ,85345-8364,63,483000.0,22,False
169587878,New York,US,NY,10025,44,2647000.0,37,False
177486212,Bessemer City,US,NC,28016-5619,56,279000.0,29,False
166054748,Corpus Christi,US,TX,78415,60,88000.0,23,False
144514844,Wallingford,US,PA,19086-6769,82,220000.0,14,False
190919284,Mandeville,US,LA,70448-1022,92,273000.0,10.0,False
218405241,Traverse City,US,MI,49685,39,348000.0,34,False
201036378,Cliffside Park,US,NJ,7010,60,618000.0,23,False
21866567,Madera,US,CA,93637-8652,80,288000.0,15,False
53779878,Chicago,US,IL,60641-4229,83,291000.0,14,False
209197923,Troy,US,NY,12180,55,142000.0,31,True
196464612,Wolcott,US,CT,6716,56,390000.0,26,False
2676756,South Amboy,US,NJ,08879-2050,54,291000.0,31,False
149016896,Kansas City,US,KS,66101-3416,40,69000.0,37,False
148922119,Arlington,US,TX,76018,91,291000.0,10.0,False
192978079,Six Mile,US,SC,29682,69,165000.0,19,False
8506483,Houston,US,TX,77043-4615,86,356000.0,12,False
214290617,Lynchburg,US,VA,24503-4103,59,276000.0,24,False
8554534,MIDLAND,US,TX,79705-6122,57,421000.0,26,False
248934061,Bronx,US,NY,10455-1391,42,609000.0,39,False
46137584,Paso Robles,US,CA,93446,80,544000.0,15,False
212626062,State College,US,PA,16801-7299,74,655000.0,17,False
54408959,Rogers,US,AR,72756,69,179000.0,19,False
142958869,Tulsa,US,OK,74136,70,566000.0,19,False
252247910,Clermont,US,FL,34715,51,365000.0,27,False
25098990,Lubbock,US,TX,79411-1517,58,110000.0,25,False
48141953,Graham,US,NC,27253-8248,57,100000.0,26,False
211220305,Victoria,US,TX,77904,84,112000.0,13,False
149541234,Saint Charles,US,MO,63303,83,131000.0,14,False
168649489,New York,US,NY,10009,45,777000.0,33,True
13567772,Providence,US,RI,02908-2107,75,287000.0,17,False
22011308,Grosse Pointe Park,US,MI,48230,70,427000.0,19,False
218019647,Belgrade,US,MT,59715,84,310000.0,13,False
160656224,Fort Lauderdale,US,FL,33316-3832,75,988000.0,16,False
324031819,Fort Worth,US,TX,76131,87,255000.0,12,False
154535968,Venice,US,CA,90291-3518,63,1435000.0,21,False
38641082,Dunn,US,NC,28334,55,93000.0,26,False
168183559,New York,US,NY,10028,56,432000.0,27,False
185037696,Auburn,US,WA,98001-9403,70,295000.0,18,False
46338667,Homestead,US,FL,33033,74,334000.0,17,False
35009853,New Windsor,US,MD,21776-9725,68,247000.0,19,False
188418790,Stillwater,US,MN,55082,79,241000.0,15,False
249331064,Mountain View,US,CA,94041,77,2073000.0,16,False
37846560,South Bound Brook,US,NJ,08880-1401,68,266000.0,20.0,True
29543912,montgomery village,US,MD,20886,92,263000.0,9,False
200967956,Secaucus,US,NJ,7094,91,318000.0,10.0,False
151782788,Oakland,US,CA,94606-1151,36,958000.0,56,False
176490114,Thomasville,US,NC,27360,74,245000.0,17,False
217531462,Gilbert,US,AZ,85298,94,322000.0,8,False
183042843,Chagrin Falls,US,OH,44023,67,262000.0,20.0,False
49416130,Fort Lauderdale,US,FL,33316-1114,44,331000.0,38,False
